{"type": "FeatureCollection", "features": [ {"type": "Feature", "properties": {"norad_id": 39122, "name": "EUTELSAT 117 WEST A", "group": "eutelsat", "lat": 0.028891479729682222, "lon": 103.39033932215692, "alt_km": 35798.44769384723, "timestamp": "2025-12-07T09:35:09.463437+00:00", "meta": {"OBJECT_NAME": "EUTELSAT 117 WEST A", "OBJECT_ID": "2013-012A", "EPOCH": "2025-12-06T21:40:18.179616", "MEAN_MOTION": 1.00269992, "ECCENTRICITY": 0.00031484, "INCLINATION": 0.0147, "RA_OF_ASC_NODE": 328.1698, "ARG_OF_PERICENTER": 288.1954, "MEAN_ANOMALY": 27.85, "EPHEMERIS_TYPE": 0, "CLASSIFICATION_TYPE": "U", "NORAD_CAT_ID": 39122, "ELEMENT_SET_NO": 999, "REV_AT_EPOCH": 4650, "BSTAR": 0, "MEAN_MOTION_DOT": -7e-08, "MEAN_MOTION_DDOT": 0}, "tle": {"line1": "1 39122U 13012A   25340.90298819 -.00000007  00000+0  00000+0 0  9990", "line2": "2 39122   0.0147 328.1698 0003148 288.1954  27.8500  1.00269992 46506"}}, "geometry": {"type": "Point", "coordinates": [103.39033932215692, 0.028891479729682222]}}, {"type": "Feature", "properties": {"norad_id": 39163, "name": "EUTELSAT 7B", "group": "eutelsat", "lat": -0.06377114448772594, "lon": -132.8607221891327, "alt_km": 35784.74581530563, "timestamp": "2025-12-07T09:35:09.463450+00:00", "meta": {"OBJECT_NAME": "EUTELSAT 7B", "OBJECT_ID": "2013-022A", "EPOCH": "2025-12-06T21:50:38.745024", "MEAN_MOTION": 1.0027059, "ECCENTRICITY": 0.00044774, "INCLINATION": 0.0691, "RA_OF_ASC_NODE": 8.8561, "ARG_OF_PERICENTER": 303.5544, "MEAN_ANOMALY": 98.1797, "EPHEMERIS_TYPE": 0, "CLASSIFICATION_TYPE": "U", "NORAD_CAT_ID": 39163, "ELEMENT_SET_NO": 999, "REV_AT_EPOCH": 4602, "BSTAR": 0, "MEAN_MOTION_DOT": 5.3e-07, "MEAN_MOTION_DDOT": 0}, "tle": {"line1": "1 39163U 13022A   25340.91017066  .00000053  00000+0  00000+0 0  9990", "line2": "2 39163   0.0691   8.8561 0004477 303.5544  98.1797  1.00270590 46021"}}, "geometry": {"type": "Point", "coordinates": [-132.8607221891327, -0.06377114448772594]}}, {"type": "Feature", "properties": {"norad_id": 39612, "name": "EXPRESS-AT1", "group": "eutelsat", "lat": -0.025115247655456592, "lon": -83.78707590400917, "alt_km": 35786.1775658699, "timestamp": "2025-12-07T09:35:09.463462+00:00", "meta": {"OBJECT_NAME": "EXPRESS-AT1", "OBJECT_ID": "2014-010A", "EPOCH": "2025-12-06T21:25:41.206656", "MEAN_MOTION": 1.00271881, "ECCENTRICITY": 5.368e-05, "INCLINATION": 0.0175, "RA_OF_ASC_NODE": 305.5558, "ARG_OF_PERICENTER": 236.3246, "MEAN_ANOMALY": 271.4673, "EPHEMERIS_TYPE": 0, "CLASSIFICATION_TYPE": "U", "NORAD_CAT_ID": 39612, "ELEMENT_SET_NO": 999, "REV_AT_EPOCH": 4289, "BSTAR": 0, "MEAN_MOTION_DOT": 8.4e-07, "MEAN_MOTION_DDOT": 0}, "tle": {"line1": "1 39612U 14010A   25340.89283804  .00000084  00000+0  00000+0 0  9993", "line2": "2 39612   0.0175 305.5558 0000536 236.3246 271.4673  1.00271881 42898"}}, "geometry": {"type": "Point", "coordinates": [-83.78707590400917, -0.025115247655456592]}}, {"type": "Feature", "properties": {"norad_id": 39613, "name": "EXPRESS-AT2", "group": "eutelsat", "lat": 0.008983985096280268, "lon": 0.0713425348431636, "alt_km": 35785.15404143313, "timestamp": "2025-12-07T09:35:09.463475+00:00", "meta": {"OBJECT_NAME": "EXPRESS-AT2", "OBJECT_ID": "2014-010B", "EPOCH": "2025-12-06T21:10:43.513248", "MEAN_MOTION": 1.00269119, "ECCENTRICITY": 0.00014263, "INCLINATION": 0.0183, "RA_OF_ASC_NODE": 353.4523, "ARG_OF_PERICENTER": 293.5515, "MEAN_ANOMALY": 246.4476, "EPHEMERIS_TYPE": 0, "CLASSIFICATION_TYPE": "U", "NORAD_CAT_ID": 39613, "ELEMENT_SET_NO": 999, "REV_AT_EPOCH": 4257, "BSTAR": 0, "MEAN_MOTION_DOT": 0, "MEAN_MOTION_DDOT": 0}, "tle": {"line1": "1 39613U 14010B   25340.88244807  .00000000  00000+0  00000+0 0  9991", "line2": "2 39613   0.0183 353.4523 0001426 293.5515 246.4476  1.00269119 42574"}}, "geometry": {"type": "Point", "coordinates": [0.0713425348431636, 0.008983985096280268]}}, {"type": "Feature", "properties": {"norad_id": 39773, "name": "EUTELSAT 3B", "group": "eutelsat", "lat": -0.05416283468885238, "lon": -136.70409936274615, "alt_km": 35766.350154040556, "timestamp": "2025-12-07T09:35:09.463486+00:00", "meta": {"OBJECT_NAME": "EUTELSAT 3B", "OBJECT_ID": "2014-030A", "EPOCH": "2025-12-06T21:58:38.690976", "MEAN_MOTION": 1.00271751, "ECCENTRICITY": 0.00047148, "INCLINATION": 0.0651, "RA_OF_ASC_NODE": 11.5729, "ARG_OF_PERICENTER": 219.942, "MEAN_ANOMALY": 177.1921, "EPHEMERIS_TYPE": 0, "CLASSIFICATION_TYPE": "U", "NORAD_CAT_ID": 39773, "ELEMENT_SET_NO": 999, "REV_AT_EPOCH": 4213, "BSTAR": 0, "MEAN_MOTION_DOT": 2.6e-07, "MEAN_MOTION_DDOT": 0}, "tle": {"line1": "1 39773U 14030A   25340.91572559  .00000026  00000+0  00000+0 0  9990", "line2": "2 39773   0.0651  11.5729 0004714 219.9420 177.1921  1.00271751 42133"}}, "geometry": {"type": "Point", "coordinates": [-136.70409936274615, -0.05416283468885238]}}, {"type": "Feature", "properties": {"norad_id": 40425, "name": "EUTELSAT 115 WEST B", "group": "eutelsat", "lat": -0.011492308439040172, "lon": 105.33624182350952, "alt_km": 35785.302244218045, "timestamp": "2025-12-07T09:35:09.463499+00:00", "meta": {"OBJECT_NAME": "EUTELSAT 115 WEST B", "OBJECT_ID": "2015-010B", "EPOCH": "2025-12-06T10:47:28.419072", "MEAN_MOTION": 1.00271104, "ECCENTRICITY": 3.126e-05, "INCLINATION": 0.007, "RA_OF_ASC_NODE": 143.6476, "ARG_OF_PERICENTER": 276.9333, "MEAN_ANOMALY": 61.9058, "EPHEMERIS_TYPE": 0, "CLASSIFICATION_TYPE": "U", "NORAD_CAT_ID": 40425, "ELEMENT_SET_NO": 999, "REV_AT_EPOCH": 3946, "BSTAR": 0, "MEAN_MOTION_DOT": -1.8e-07, "MEAN_MOTION_DDOT": 0}, "tle": {"line1": "1 40425U 15010B   25340.44963448 -.00000018  00000+0  00000+0 0  9996", "line2": "2 40425   0.0070 143.6476 0000312 276.9333  61.9058  1.00271104 39461"}}, "geometry": {"type": "Point", "coordinates": [105.33624182350952, -0.011492308439040172]}}, {"type": "Feature", "properties": {"norad_id": 40875, "name": "EUTELSAT 8 WEST B", "group": "eutelsat", "lat": -0.05757378389069412, "lon": -147.81722025208583, "alt_km": 35773.82557099255, "timestamp": "2025-12-07T09:35:09.463511+00:00", "meta": {"OBJECT_NAME": "EUTELSAT 8 WEST B", "OBJECT_ID": "2015-039B", "EPOCH": "2025-12-06T22:06:38.876256", "MEAN_MOTION": 1.00271351, "ECCENTRICITY": 0.00041371, "INCLINATION": 0.0645, "RA_OF_ASC_NODE": 355.0916, "ARG_OF_PERICENTER": 262.1587, "MEAN_ANOMALY": 142.3766, "EPHEMERIS_TYPE": 0, "CLASSIFICATION_TYPE": "U", "NORAD_CAT_ID": 40875, "ELEMENT_SET_NO": 999, "REV_AT_EPOCH": 3772, "BSTAR": 0, "MEAN_MOTION_DOT": -6e-07, "MEAN_MOTION_DDOT": 0}, "tle": {"line1": "1 40875U 15039B   25340.92128329 -.00000060  00000+0  00000+0 0  9997", "line2": "2 40875   0.0645 355.0916 0004137 262.1587 142.3766  1.00271351 37724"}}, "geometry": {"type": "Point", "coordinates": [-147.81722025208583, -0.05757378389069412]}}, {"type": "Feature", "properties": {"norad_id": 41310, "name": "EUTELSAT 9B", "group": "eutelsat", "lat": 0.009234316340086885, "lon": -130.83178174059782, "alt_km": 35769.1620362437, "timestamp": "2025-12-07T09:35:09.463523+00:00", "meta": {"OBJECT_NAME": "EUTELSAT 9B", "OBJECT_ID": "2016-005A", "EPOCH": "2025-12-06T21:50:38.745024", "MEAN_MOTION": 1.00272556, "ECCENTRICITY": 0.0005029, "INCLINATION": 0.0751, "RA_OF_ASC_NODE": 75.8515, "ARG_OF_PERICENTER": 191.9577, "MEAN_ANOMALY": 144.7914, "EPHEMERIS_TYPE": 0, "CLASSIFICATION_TYPE": "U", "NORAD_CAT_ID": 41310, "ELEMENT_SET_NO": 999, "REV_AT_EPOCH": 3618, "BSTAR": 0, "MEAN_MOTION_DOT": 6.8e-07, "MEAN_MOTION_DDOT": 0}, "tle": {"line1": "1 41310U 16005A   25340.91017066  .00000068  00000+0  00000+0 0  9997", "line2": "2 41310   0.0751  75.8515 0005029 191.9577 144.7914  1.00272556 36186"}}, "geometry": {"type": "Point", "coordinates": [-130.83178174059782, 0.009234316340086885]}}, {"type": "Feature", "properties": {"norad_id": 41382, "name": "EUTELSAT 65 WEST A", "group": "eutelsat", "lat": 0.02086782007813038, "lon": 154.95833021214406, "alt_km": 35790.959137119724, "timestamp": "2025-12-07T09:35:09.463535+00:00", "meta": {"OBJECT_NAME": "EUTELSAT 65 WEST A", "OBJECT_ID": "2016-014A", "EPOCH": "2025-12-06T21:54:54.279936", "MEAN_MOTION": 1.00269506, "ECCENTRICITY": 0.00028768, "INCLINATION": 0.0494, "RA_OF_ASC_NODE": 356.1689, "ARG_OF_PERICENTER": 268.9659, "MEAN_ANOMALY": 74.3245, "EPHEMERIS_TYPE": 0, "CLASSIFICATION_TYPE": "U", "NORAD_CAT_ID": 41382, "ELEMENT_SET_NO": 999, "REV_AT_EPOCH": 3560, "BSTAR": 0, "MEAN_MOTION_DOT": -2.71e-06, "MEAN_MOTION_DDOT": 0}, "tle": {"line1": "1 41382U 16014A   25340.91312824 -.00000271  00000+0  00000+0 0  9993", "line2": "2 41382   0.0494 356.1689 0002876 268.9659  74.3245  1.00269506 35601"}}, "geometry": {"type": "Point", "coordinates": [154.95833021214406, 0.02086782007813038]}}, {"type": "Feature", "properties": {"norad_id": 41589, "name": "EUTELSAT 117 WEST B", "group": "eutelsat", "lat": -0.01647514080657799, "lon": 103.20101566558367, "alt_km": 35785.10452097313, "timestamp": "2025-12-07T09:35:09.463547+00:00", "meta": {"OBJECT_NAME": "EUTELSAT 117 WEST B", "OBJECT_ID": "2016-038B", "EPOCH": "2025-12-06T21:40:10.692192", "MEAN_MOTION": 1.00270331, "ECCENTRICITY": 3.265e-05, "INCLINATION": 0.0031, "RA_OF_ASC_NODE": 151.3516, "ARG_OF_PERICENTER": 304.7129, "MEAN_ANOMALY": 187.9125, "EPHEMERIS_TYPE": 0, "CLASSIFICATION_TYPE": "U", "NORAD_CAT_ID": 41589, "ELEMENT_SET_NO": 999, "REV_AT_EPOCH": 3473, "BSTAR": 0, "MEAN_MOTION_DOT": -6e-08, "MEAN_MOTION_DDOT": 0}, "tle": {"line1": "1 41589U 16038B   25340.90290153 -.00000006  00000+0  00000+0 0  9993", "line2": "2 41589   0.0031 151.3516 0000326 304.7129 187.9125  1.00270331 34739"}}, "geometry": {"type": "Point", "coordinates": [103.20101566558367, -0.01647514080657799]}}]}